[{"OBJECT_NAME":"STARLINK-34535","OBJECT_ID":"2025-142C","EPOCH":"2026-03-09T22:20:52.561824","MEAN_MOTION":14.98315048,"ECCENTRICITY":0.00027672,"INCLINATION":70.0028,"RA_OF_ASC_NODE":313.9569,"ARG_OF_PERICENTER":237.0981,"MEAN_ANOMALY":122.9912,"EPHEMERIS_TYPE":0,"CLASSIFICATION_TYPE":"U","NORAD_CAT_ID":64698,"ELEMENT_SET_NO":999,"REV_AT_EPOCH":3950,"BSTAR":0.00014002144,"MEAN_MOTION_DOT":1.578e-5,"MEAN_MOTION_DDOT":0},{"OBJECT_NAME":"UNKNOWN","OBJECT_ID":"","EPOCH":"2026-03-09T22:13:37.396992","MEAN_MOTION":14.94079285,"ECCENTRICITY":0.00368591,"INCLINATION":98.4007,"RA_OF_ASC_NODE":57.0532,"ARG_OF_PERICENTER":27.679,"MEAN_ANOMALY":332.6379,"EPHEMERIS_TYPE":0,"CLASSIFICATION_TYPE":"U","NORAD_CAT_ID":270309,"ELEMENT_SET_NO":999,"REV_AT_EPOCH":28085,"BSTAR":0.00073987035,"MEAN_MOTION_DOT":7.947e-5,"MEAN_MOTION_DDOT":0}]
